[
    {
        "code": 4,
        "phoneCode": 93,
        "iso": "AF",
        "iso3": "AFG",
        "name": "Afeganistão",
        "formalName": "República Islâmica do Afeganistão"
    },
    {
        "code": 8,
        "phoneCode": 355,
        "iso": "AL",
        "iso3": "ALB",
        "name": "Albânia",
        "formalName": "República da Albânia"
    },
    {
        "code": 12,
        "phoneCode": 213,
        "iso": "DZ",
        "iso3": "DZA",
        "name": "Algéria",
        "formalName": "República Democrática Popular da Algéria"
    },
    {
        "code": 16,
        "phoneCode": 1684,
        "iso": "AS",
        "iso3": "ASM",
        "name": "Samoa Americana",
        "formalName": "Território de Samoa Americana"
    },
    {
        "code": 20,
        "phoneCode": 376,
        "iso": "AD",
        "iso3": "AND",
        "name": "Andorra",
        "formalName": "Principado Andorra"
    },
    {
        "code": 24,
        "phoneCode": 244,
        "iso": "AO",
        "iso3": "AGO",
        "name": "Angola",
        "formalName": "República de Angola"
    },
    {
        "code": 660,
        "phoneCode": 1264,
        "iso": "AI",
        "iso3": "AIA",
        "name": "Anguilla",
        "formalName": "Anguilla"
    },
    {
        "code": 10,
        "phoneCode": 672,
        "iso": "AQ",
        "iso3": "ATA",
        "name": "Antártida",
        "formalName": "Antártida"
    },
    {
        "code": 28,
        "phoneCode": 1268,
        "iso": "AG",
        "iso3": "ATG",
        "name": "Antigua e Barbuda",
        "formalName": "Antigua e Barbuda"
    },
    {
        "code": 32,
        "phoneCode": 54,
        "iso": "AR",
        "iso3": "ARG",
        "name": "Argentina",
        "formalName": "República Argentina"
    },
    {
        "code": 51,
        "phoneCode": 374,
        "iso": "AM",
        "iso3": "ARM",
        "name": "Armênia",
        "formalName": "República da Armênia"
    },
    {
        "code": 533,
        "phoneCode": 297,
        "iso": "AW",
        "iso3": "ABW",
        "name": "Aruba",
        "formalName": "Aruba"
    },
    {
        "code": 36,
        "phoneCode": 61,
        "iso": "AU",
        "iso3": "AUS",
        "name": "Austrália",
        "formalName": "Comunidade da Austrália"
    },
    {
        "code": 40,
        "phoneCode": 43,
        "iso": "AT",
        "iso3": "AUT",
        "name": "Áustria",
        "formalName": "República da Áustria"
    },
    {
        "code": 31,
        "phoneCode": 994,
        "iso": "AZ",
        "iso3": "AZE",
        "name": "Azerbaijão",
        "formalName": "República do Azerbaijão"
    },
    {
        "code": 44,
        "phoneCode": 1242,
        "iso": "BS",
        "iso3": "BHS",
        "name": "Bahamas",
        "formalName": "Comunidade de Bahamas"
    },
    {
        "code": 48,
        "phoneCode": 973,
        "iso": "BH",
        "iso3": "BHR",
        "name": "Bahrein",
        "formalName": "Reino do Bahrein"
    },
    {
        "code": 50,
        "phoneCode": 880,
        "iso": "BD",
        "iso3": "BGD",
        "name": "Bangladesh",
        "formalName": "República Popular de Bangladesh"
    },
    {
        "code": 52,
        "phoneCode": 246,
        "iso": "BB",
        "iso3": "BRB",
        "name": "Barbados",
        "formalName": "Barbados"
    },
    {
        "code": 112,
        "phoneCode": 375,
        "iso": "BY",
        "iso3": "BLR",
        "name": "Bielorrússia",
        "formalName": "República da Bielorrússia"
    },
    {
        "code": 56,
        "phoneCode": 32,
        "iso": "BE",
        "iso3": "BEL",
        "name": "Bélgica",
        "formalName": "Reino da Bélgica"
    },
    {
        "code": 84,
        "phoneCode": 501,
        "iso": "BZ",
        "iso3": "BLZ",
        "name": "Belize",
        "formalName": "Belize"
    },
    {
        "code": 204,
        "phoneCode": 229,
        "iso": "BJ",
        "iso3": "BEN",
        "name": "Benin",
        "formalName": "República do Benin"
    },
    {
        "code": 60,
        "phoneCode": 1441,
        "iso": "BM",
        "iso3": "BMU",
        "name": "Bermuda",
        "formalName": "Bermuda"
    },
    {
        "code": 64,
        "phoneCode": 975,
        "iso": "BT",
        "iso3": "BTN",
        "name": "Butão",
        "formalName": "Reino do Butão"
    },
    {
        "code": 68,
        "phoneCode": 591,
        "iso": "BO",
        "iso3": "BOL",
        "name": "Bolívia",
        "formalName": "Estado Plurinacional da Bolívia"
    },
    {
        "code": 70,
        "phoneCode": 387,
        "iso": "BA",
        "iso3": "BIH",
        "name": "Bósnia e Herzegovina",
        "formalName": "Bósnia e Herzegovina"
    },
    {
        "code": 72,
        "phoneCode": 267,
        "iso": "BW",
        "iso3": "BWA",
        "name": "Botswana",
        "formalName": "República da Botswana"
    },
    {
        "code": 74,
        "phoneCode": 47,
        "iso": "BV",
        "iso3": "BVT",
        "name": "Ilha Bouvet",
        "formalName": "Ilha Bouvet"
    },
    {
        "code": 76,
        "phoneCode": 55,
        "iso": "BR",
        "iso3": "BRA",
        "name": "Brasil",
        "formalName": "República Federativa do Brasil"
    },
    {
        "code": 86,
        "phoneCode": 246,
        "iso": "IO",
        "iso3": "IOT",
        "name": "Território Britânico do Oceano Índico",
        "formalName": "Território Britânico do Oceano Índico"
    },
    {
        "code": 96,
        "phoneCode": 673,
        "iso": "BN",
        "iso3": "BRN",
        "name": "Brunei",
        "formalName": "Estado do Brunei Darussalam"
    },
    {
        "code": 100,
        "phoneCode": 359,
        "iso": "BG",
        "iso3": "BGR",
        "name": "Bulgária",
        "formalName": "República da Bulgária"
    },
    {
        "code": 854,
        "phoneCode": 226,
        "iso": "BF",
        "iso3": "BFA",
        "name": "Burkina Faso",
        "formalName": "Burkina Faso"
    },
    {
        "code": 108,
        "phoneCode": 257,
        "iso": "BI",
        "iso3": "BDI",
        "name": "Burundi",
        "formalName": "República do Burundi"
    },
    {
        "code": 116,
        "phoneCode": 855,
        "iso": "KH",
        "iso3": "KHM",
        "name": "Camboja",
        "formalName": "Reino do Camboja"
    },
    {
        "code": 120,
        "phoneCode": 237,
        "iso": "CM",
        "iso3": "CMR",
        "name": "Camarões",
        "formalName": "República de Camarões"
    },
    {
        "code": 124,
        "phoneCode": 1,
        "iso": "CA",
        "iso3": "CAN",
        "name": "Canadá",
        "formalName": "Canadá"
    },
    {
        "code": 132,
        "phoneCode": 238,
        "iso": "CV",
        "iso3": "CPV",
        "name": "Cabo Verde",
        "formalName": "República do Cabo Verde"
    },
    {
        "code": 136,
        "phoneCode": 1345,
        "iso": "KY",
        "iso3": "CYM",
        "name": "Ilhas Cayman",
        "formalName": "Ilhas Cayman"
    },
    {
        "code": 140,
        "phoneCode": 236,
        "iso": "CF",
        "iso3": "CAF",
        "name": "República Centro-Africana",
        "formalName": "República Centro-Africana"
    },
    {
        "code": 148,
        "phoneCode": 235,
        "iso": "TD",
        "iso3": "TCD",
        "name": "Chade",
        "formalName": "República do Chade"
    },
    {
        "code": 152,
        "phoneCode": 56,
        "iso": "CL",
        "iso3": "CHL",
        "name": "Chile",
        "formalName": "República do Chile"
    },
    {
        "code": 156,
        "phoneCode": 86,
        "iso": "CN",
        "iso3": "CHN",
        "name": "China",
        "formalName": "República Popular da China"
    },
    {
        "code": 162,
        "phoneCode": 61,
        "iso": "CX",
        "iso3": "CXR",
        "name": "Ilha Christmas",
        "formalName": "Território da Ilha Christmas"
    },
    {
        "code": 166,
        "phoneCode": 672,
        "iso": "CC",
        "iso3": "CCK",
        "name": "Ilhas Cocos (Keeling)",
        "formalName": "Território das Ilhas Cocos (Keeling)"
    },
    {
        "code": 170,
        "phoneCode": 57,
        "iso": "CO",
        "iso3": "COL",
        "name": "Colômbia",
        "formalName": "República da Colômbia"
    },
    {
        "code": 174,
        "phoneCode": 269,
        "iso": "KM",
        "iso3": "COM",
        "name": "Comores",
        "formalName": "União das Comores"
    },
    {
        "code": 178,
        "phoneCode": 242,
        "iso": "CG",
        "iso3": "COG",
        "name": "Congo",
        "formalName": "República do Congo"
    },
    {
        "code": 180,
        "phoneCode": 242,
        "iso": "CD",
        "iso3": "COD",
        "name": "Congo (DR)",
        "formalName": "República Democrática do Congo"
    },
    {
        "code": 184,
        "phoneCode": 682,
        "iso": "CK",
        "iso3": "COK",
        "name": "Ilhas Cook",
        "formalName": "Ilhas Cook"
    },
    {
        "code": 188,
        "phoneCode": 506,
        "iso": "CR",
        "iso3": "CRI",
        "name": "Costa Rica",
        "formalName": "República da Costa Rica"
    },
    {
        "code": 384,
        "phoneCode": 225,
        "iso": "CI",
        "iso3": "CIV",
        "name": "Costa do Marfim",
        "formalName": "República da Costa do Marfim"
    },
    {
        "code": 191,
        "phoneCode": 385,
        "iso": "HR",
        "iso3": "HRV",
        "name": "Croácia",
        "formalName": "República da Croácia"
    },
    {
        "code": 192,
        "phoneCode": 53,
        "iso": "CU",
        "iso3": "CUB",
        "name": "Cuba",
        "formalName": "República de Cuba"
    },
    {
        "code": 196,
        "phoneCode": 357,
        "iso": "CY",
        "iso3": "CYP",
        "name": "Chipre",
        "formalName": "República do Chipre"
    },
    {
        "code": 203,
        "phoneCode": 420,
        "iso": "CZ",
        "iso3": "CZE",
        "name": "República Tcheca",
        "formalName": "República Tcheca"
    },
    {
        "code": 208,
        "phoneCode": 45,
        "iso": "DK",
        "iso3": "DNK",
        "name": "Dinamarca",
        "formalName": "Reino da Dinamarca"
    },
    {
        "code": 262,
        "phoneCode": 253,
        "iso": "DJ",
        "iso3": "DJI",
        "name": "Djibuti",
        "formalName": "República do Djibuti"
    },
    {
        "code": 212,
        "phoneCode": 1767,
        "iso": "DM",
        "iso3": "DMA",
        "name": "Dominica",
        "formalName": "Comunidade da Dominica"
    },
    {
        "code": 214,
        "phoneCode": 1809,
        "iso": "DO",
        "iso3": "DOM",
        "name": "República Dominicana",
        "formalName": "República Dominicana"
    },
    {
        "code": 218,
        "phoneCode": 593,
        "iso": "EC",
        "iso3": "ECU",
        "name": "Equador",
        "formalName": "República do Equador"
    },
    {
        "code": 818,
        "phoneCode": 20,
        "iso": "EG",
        "iso3": "EGY",
        "name": "Egito",
        "formalName": "República Árabe do Egito"
    },
    {
        "code": 222,
        "phoneCode": 503,
        "iso": "SV",
        "iso3": "SLV",
        "name": "El Salvador",
        "formalName": "República El Salvador"
    },
    {
        "code": 226,
        "phoneCode": 240,
        "iso": "GQ",
        "iso3": "GNQ",
        "name": "Guiné Equatorial",
        "formalName": "República do Guiné Equatorial"
    },
    {
        "code": 232,
        "phoneCode": 291,
        "iso": "ER",
        "iso3": "ERI",
        "name": "Eritreia",
        "formalName": "Estado da Eritreia"
    },
    {
        "code": 233,
        "phoneCode": 372,
        "iso": "EE",
        "iso3": "EST",
        "name": "Estônia",
        "formalName": "República da Estônia"
    },
    {
        "code": 231,
        "phoneCode": 251,
        "iso": "ET",
        "iso3": "ETH",
        "name": "Etiópia",
        "formalName": "República Democrática Federal da Etiópia"
    },
    {
        "code": 238,
        "phoneCode": 500,
        "iso": "FK",
        "iso3": "FLK",
        "name": "Ilhas Malvinas",
        "formalName": "Ilhas Malvinas"
    },
    {
        "code": 234,
        "phoneCode": 298,
        "iso": "FO",
        "iso3": "FRO",
        "name": "Ilhas Faroe",
        "formalName": "Ilhas Faroe"
    },
    {
        "code": 242,
        "phoneCode": 679,
        "iso": "FJ",
        "iso3": "FJI",
        "name": "Fiji",
        "formalName": "República do Fiji"
    },
    {
        "code": 246,
        "phoneCode": 358,
        "iso": "FI",
        "iso3": "FIN",
        "name": "Finlândia",
        "formalName": "República da Finlândia"
    },
    {
        "code": 250,
        "phoneCode": 33,
        "iso": "FR",
        "iso3": "FRA",
        "name": "França",
        "formalName": "República Francesa"
    },
    {
        "code": 254,
        "phoneCode": 594,
        "iso": "GF",
        "iso3": "GUF",
        "name": "Guiana Francesa",
        "formalName": "Guiana Francesa"
    },
    {
        "code": 258,
        "phoneCode": 689,
        "iso": "PF",
        "iso3": "PYF",
        "name": "Polinésia Francesa",
        "formalName": "Polinésia Francesa"
    },
    {
        "code": 260,
        "phoneCode": 33,
        "iso": "TF",
        "iso3": "ATF",
        "name": "Terras Austrais e Antárticas Francesas",
        "formalName": "Território das Terras Austrais e Antárticas Francesas"
    },
    {
        "code": 266,
        "phoneCode": 241,
        "iso": "GA",
        "iso3": "GAB",
        "name": "Gabão",
        "formalName": "República Gabonesa"
    },
    {
        "code": 270,
        "phoneCode": 220,
        "iso": "GM",
        "iso3": "GMB",
        "name": "Gâmbia",
        "formalName": "República da Gâmbia"
    },
    {
        "code": 268,
        "phoneCode": 995,
        "iso": "GE",
        "iso3": "GEO",
        "name": "Geórgia",
        "formalName": "Geórgia"
    },
    {
        "code": 276,
        "phoneCode": 49,
        "iso": "DE",
        "iso3": "DEU",
        "name": "Alemanha",
        "formalName": "República Federal da Alemanha"
    },
    {
        "code": 288,
        "phoneCode": 233,
        "iso": "GH",
        "iso3": "GHA",
        "name": "Gana",
        "formalName": "Repúblia de Gana"
    },
    {
        "code": 292,
        "phoneCode": 350,
        "iso": "GI",
        "iso3": "GIB",
        "name": "Gibraltar",
        "formalName": "Gibraltar"
    },
    {
        "code": 300,
        "phoneCode": 30,
        "iso": "GR",
        "iso3": "GRC",
        "name": "Grécia",
        "formalName": "República Helênica"
    },
    {
        "code": 304,
        "phoneCode": 299,
        "iso": "GL",
        "iso3": "GRL",
        "name": "Groelândia",
        "formalName": "Groelândia"
    },
    {
        "code": 308,
        "phoneCode": 1473,
        "iso": "GD",
        "iso3": "GRD",
        "name": "Granada",
        "formalName": "Granada"
    },
    {
        "code": 312,
        "phoneCode": 590,
        "iso": "GP",
        "iso3": "GLP",
        "name": "Guadalupe",
        "formalName": "Guadalupe"
    },
    {
        "code": 316,
        "phoneCode": 1671,
        "iso": "GU",
        "iso3": "GUM",
        "name": "Guão",
        "formalName": "Território do Guão"
    },
    {
        "code": 320,
        "phoneCode": 502,
        "iso": "GT",
        "iso3": "GTM",
        "name": "Guatemala",
        "formalName": "República da Guatemala"
    },
    {
        "code": 324,
        "phoneCode": 224,
        "iso": "GN",
        "iso3": "GIN",
        "name": "Guiné",
        "formalName": "República do Guiné"
    },
    {
        "code": 624,
        "phoneCode": 245,
        "iso": "GW",
        "iso3": "GNB",
        "name": "Guiné-Bissau",
        "formalName": "República da Guiné-Bissau"
    },
    {
        "code": 328,
        "phoneCode": 592,
        "iso": "GY",
        "iso3": "GUY",
        "name": "Guiana",
        "formalName": "República Cooperativa da Guiana"
    },
    {
        "code": 332,
        "phoneCode": 509,
        "iso": "HT",
        "iso3": "HTI",
        "name": "Haiti",
        "formalName": "República do Haiti"
    },
    {
        "code": 334,
        "phoneCode": 672,
        "iso": "HM",
        "iso3": "HMD",
        "name": "Ilhas Heard e McDonald",
        "formalName": "Território das Ilhas Heard e McDonald"
    },
    {
        "code": 336,
        "phoneCode": 39,
        "iso": "VA",
        "iso3": "VAT",
        "name": "Vaticano",
        "formalName": "Estado da Cidade do Vaticano"
    },
    {
        "code": 340,
        "phoneCode": 504,
        "iso": "HN",
        "iso3": "HND",
        "name": "Honduras",
        "formalName": "República de Honduras"
    },
    {
        "code": 344,
        "phoneCode": 852,
        "iso": "HK",
        "iso3": "HKG",
        "name": "Hong Kong",
        "formalName": "Região Administrativa Especial de Hong Kong da República Popular da China"
    },
    {
        "code": 348,
        "phoneCode": 36,
        "iso": "HU",
        "iso3": "HUN",
        "name": "Hungria",
        "formalName": "Hungria"
    },
    {
        "code": 352,
        "phoneCode": 354,
        "iso": "IS",
        "iso3": "ISL",
        "name": "Islândia",
        "formalName": "Islândia"
    },
    {
        "code": 356,
        "phoneCode": 91,
        "iso": "IN",
        "iso3": "IND",
        "name": "Índia",
        "formalName": "República da Índia"
    },
    {
        "code": 360,
        "phoneCode": 62,
        "iso": "ID",
        "iso3": "IDN",
        "name": "Indonésia",
        "formalName": "República da Indonésia"
    },
    {
        "code": 364,
        "phoneCode": 98,
        "iso": "IR",
        "iso3": "IRN",
        "name": "Iran",
        "formalName": "República Islâmica do Iran"
    },
    {
        "code": 368,
        "phoneCode": 964,
        "iso": "IQ",
        "iso3": "IRQ",
        "name": "Iraque",
        "formalName": "República do Iraque"
    },
    {
        "code": 372,
        "phoneCode": 353,
        "iso": "IE",
        "iso3": "IRL",
        "name": "Irlanda",
        "formalName": "Irlanda"
    },
    {
        "code": 376,
        "phoneCode": 972,
        "iso": "IL",
        "iso3": "ISR",
        "name": "Israel",
        "formalName": "Estado de Israel"
    },
    {
        "code": 380,
        "phoneCode": 39,
        "iso": "IT",
        "iso3": "ITA",
        "name": "Italia",
        "formalName": "República Italiana"
    },
    {
        "code": 388,
        "phoneCode": 1876,
        "iso": "JM",
        "iso3": "JAM",
        "name": "Jamaica",
        "formalName": "Jamaica"
    },
    {
        "code": 392,
        "phoneCode": 81,
        "iso": "JP",
        "iso3": "JPN",
        "name": "Japão",
        "formalName": "Japão"
    },
    {
        "code": 400,
        "phoneCode": 962,
        "iso": "JO",
        "iso3": "JOR",
        "name": "Jornânia",
        "formalName": "Reino Hachemita da Jordânia"
    },
    {
        "code": 398,
        "phoneCode": 7,
        "iso": "KZ",
        "iso3": "KAZ",
        "name": "Cazaquistão",
        "formalName": "República do Cazaquistão"
    },
    {
        "code": 404,
        "phoneCode": 254,
        "iso": "KE",
        "iso3": "KEN",
        "name": "Quênia",
        "formalName": "República do Quênia"
    },
    {
        "code": 296,
        "phoneCode": 686,
        "iso": "KI",
        "iso3": "KIR",
        "name": "Kiribati",
        "formalName": "República do Kiribati"
    },
    {
        "code": 408,
        "phoneCode": 850,
        "iso": "KP",
        "iso3": "PRK",
        "name": "Coreia do Norte",
        "formalName": "República Democrática Popular da Coreia"
    },
    {
        "code": 410,
        "phoneCode": 82,
        "iso": "KR",
        "iso3": "KOR",
        "name": "Coreia do Sul",
        "formalName": "República da Coreia"
    },
    {
        "code": 414,
        "phoneCode": 965,
        "iso": "KW",
        "iso3": "KWT",
        "name": "Kuwait",
        "formalName": "Estado do Kuwait"
    },
    {
        "code": 417,
        "phoneCode": 996,
        "iso": "KG",
        "iso3": "KGZ",
        "name": "Quirguistão",
        "formalName": "República Quirguiz"
    },
    {
        "code": 418,
        "phoneCode": 856,
        "iso": "LA",
        "iso3": "LAO",
        "name": "Laos",
        "formalName": "República Democrática Popular Lau"
    },
    {
        "code": 428,
        "phoneCode": 371,
        "iso": "LV",
        "iso3": "LVA",
        "name": "Letônia",
        "formalName": "República da Letônia"
    },
    {
        "code": 422,
        "phoneCode": 961,
        "iso": "LB",
        "iso3": "LBN",
        "name": "Líbano",
        "formalName": "República Libanesa"
    },
    {
        "code": 426,
        "phoneCode": 266,
        "iso": "LS",
        "iso3": "LSO",
        "name": "Lesoto",
        "formalName": "Reino do Lesoto"
    },
    {
        "code": 430,
        "phoneCode": 231,
        "iso": "LR",
        "iso3": "LBR",
        "name": "Libéria",
        "formalName": "República da Libéria"
    },
    {
        "code": 434,
        "phoneCode": 218,
        "iso": "LY",
        "iso3": "LBY",
        "name": "Líbia",
        "formalName": "Líbia"
    },
    {
        "code": 438,
        "phoneCode": 423,
        "iso": "LI",
        "iso3": "LIE",
        "name": "Liechtenstein",
        "formalName": "Principado de Liechtenstein"
    },
    {
        "code": 440,
        "phoneCode": 370,
        "iso": "LT",
        "iso3": "LTU",
        "name": "Lituânia",
        "formalName": "República da Lituânia"
    },
    {
        "code": 442,
        "phoneCode": 352,
        "iso": "LU",
        "iso3": "LUX",
        "name": "Luxemburgo",
        "formalName": "Grão-Ducado do Luxemburgo"
    },
    {
        "code": 446,
        "phoneCode": 853,
        "iso": "MO",
        "iso3": "MAC",
        "name": "Macao",
        "formalName": "Macao"
    },
    {
        "code": 807,
        "phoneCode": 389,
        "iso": "MK",
        "iso3": "MKD",
        "name": "Macedônia",
        "formalName": "República da Macedônia"
    },
    {
        "code": 450,
        "phoneCode": 261,
        "iso": "MG",
        "iso3": "MDG",
        "name": "Madagascar",
        "formalName": "República de Madagascar"
    },
    {
        "code": 454,
        "phoneCode": 265,
        "iso": "MW",
        "iso3": "MWI",
        "name": "Malawi",
        "formalName": "República de Malawi"
    },
    {
        "code": 458,
        "phoneCode": 60,
        "iso": "MY",
        "iso3": "MYS",
        "name": "Malásia",
        "formalName": "Malásia"
    },
    {
        "code": 462,
        "phoneCode": 960,
        "iso": "MV",
        "iso3": "MDV",
        "name": "Maldivas",
        "formalName": "Reública de Maldivas"
    },
    {
        "code": 466,
        "phoneCode": 223,
        "iso": "ML",
        "iso3": "MLI",
        "name": "Mali",
        "formalName": "República do Mali"
    },
    {
        "code": 470,
        "phoneCode": 356,
        "iso": "MT",
        "iso3": "MLT",
        "name": "Malta",
        "formalName": "República de Malta"
    },
    {
        "code": 584,
        "phoneCode": 692,
        "iso": "MH",
        "iso3": "MHL",
        "name": "Ilhas Marshall",
        "formalName": "República das Ilhas Marshall"
    },
    {
        "code": 474,
        "phoneCode": 596,
        "iso": "MQ",
        "iso3": "MTQ",
        "name": "Martinica",
        "formalName": "Martinica"
    },
    {
        "code": 478,
        "phoneCode": 222,
        "iso": "MR",
        "iso3": "MRT",
        "name": "Mauritânia",
        "formalName": "República Islâmica da Mauritânia"
    },
    {
        "code": 480,
        "phoneCode": 230,
        "iso": "MU",
        "iso3": "MUS",
        "name": "Maurício",
        "formalName": "República de Maurício"
    },
    {
        "code": 175,
        "phoneCode": 269,
        "iso": "YT",
        "iso3": "MYT",
        "name": "Mayotte",
        "formalName": "Departamento de Mayotte"
    },
    {
        "code": 484,
        "phoneCode": 52,
        "iso": "MX",
        "iso3": "MEX",
        "name": "México",
        "formalName": "Estados Unidos Mexicanos"
    },
    {
        "code": 583,
        "phoneCode": 691,
        "iso": "FM",
        "iso3": "FSM",
        "name": "Micronésia",
        "formalName": "Estados Federados da Micronesia"
    },
    {
        "code": 498,
        "phoneCode": 373,
        "iso": "MD",
        "iso3": "MDA",
        "name": "Moldova",
        "formalName": "República de Moldova"
    },
    {
        "code": 492,
        "phoneCode": 377,
        "iso": "MC",
        "iso3": "MCO",
        "name": "Mônaco",
        "formalName": "Principado de Mônaco"
    },
    {
        "code": 496,
        "phoneCode": 976,
        "iso": "MN",
        "iso3": "MNG",
        "name": "Mongólia",
        "formalName": "Mongólia"
    },
    {
        "code": 500,
        "phoneCode": 1664,
        "iso": "MS",
        "iso3": "MSR",
        "name": "Montserrat",
        "formalName": "Montserrat"
    },
    {
        "code": 504,
        "phoneCode": 212,
        "iso": "MA",
        "iso3": "MAR",
        "name": "Marrocos",
        "formalName": "Reino de Marrocos"
    },
    {
        "code": 508,
        "phoneCode": 258,
        "iso": "MZ",
        "iso3": "MOZ",
        "name": "Moçambique",
        "formalName": "República de Moçambique"
    },
    {
        "code": 104,
        "phoneCode": 95,
        "iso": "MM",
        "iso3": "MMR",
        "name": "Birmânia",
        "formalName": "República da União de Myanmar"
    },
    {
        "code": 516,
        "phoneCode": 264,
        "iso": "NA",
        "iso3": "NAM",
        "name": "Namíbia",
        "formalName": "República da Namíbia"
    },
    {
        "code": 520,
        "phoneCode": 674,
        "iso": "NR",
        "iso3": "NRU",
        "name": "Nauru",
        "formalName": "República de Nauru"
    },
    {
        "code": 524,
        "phoneCode": 977,
        "iso": "NP",
        "iso3": "NPL",
        "name": "Nepal",
        "formalName": "República Democrática Federativa do Nepal"
    },
    {
        "code": 528,
        "phoneCode": 31,
        "iso": "NL",
        "iso3": "NLD",
        "name": "Holanda",
        "formalName": "Holanda"
    },
    {
        "code": 530,
        "phoneCode": 599,
        "iso": "AN",
        "iso3": "ANT",
        "name": "Antilhas Holandesas",
        "formalName": "Antilhas Holandesas"
    },
    {
        "code": 540,
        "phoneCode": 687,
        "iso": "NC",
        "iso3": "NCL",
        "name": "Nova Caledônia",
        "formalName": "Nova Caledônia"
    },
    {
        "code": 554,
        "phoneCode": 64,
        "iso": "NZ",
        "iso3": "NZL",
        "name": "Nova Zelândia",
        "formalName": "Nova Zelândia"
    },
    {
        "code": 558,
        "phoneCode": 505,
        "iso": "NI",
        "iso3": "NIC",
        "name": "Nicarágua",
        "formalName": "República da Nicarágua"
    },
    {
        "code": 562,
        "phoneCode": 227,
        "iso": "NE",
        "iso3": "NER",
        "name": "Niger",
        "formalName": "República do Niger"
    },
    {
        "code": 566,
        "phoneCode": 234,
        "iso": "NG",
        "iso3": "NGA",
        "name": "Nigéria",
        "formalName": "República Federativa da Nigéria"
    },
    {
        "code": 570,
        "phoneCode": 683,
        "iso": "NU",
        "iso3": "NIU",
        "name": "Niue",
        "formalName": "Niue"
    },
    {
        "code": 574,
        "phoneCode": 672,
        "iso": "NF",
        "iso3": "NFK",
        "name": "Ilha Norfolk",
        "formalName": "Território da Ilha Norfolk"
    },
    {
        "code": 580,
        "phoneCode": 1670,
        "iso": "MP",
        "iso3": "MNP",
        "name": "Ilhas Marianas do Norte",
        "formalName": "Comunidade das Ilhas Marianas do Norte"
    },
    {
        "code": 578,
        "phoneCode": 47,
        "iso": "NO",
        "iso3": "NOR",
        "name": "Noruega",
        "formalName": "Reino da Noruega"
    },
    {
        "code": 512,
        "phoneCode": 968,
        "iso": "OM",
        "iso3": "OMN",
        "name": "Omã",
        "formalName": "Sultanato de Omã"
    },
    {
        "code": 586,
        "phoneCode": 92,
        "iso": "PK",
        "iso3": "PAK",
        "name": "Paquistão",
        "formalName": "República Islâmica do Paquistão"
    },
    {
        "code": 585,
        "phoneCode": 680,
        "iso": "PW",
        "iso3": "PLW",
        "name": "Palau",
        "formalName": "República de Palau"
    },
    {
        "code": 275,
        "phoneCode": 970,
        "iso": "PS",
        "iso3": "PSE",
        "name": "Palestina",
        "formalName": "Estado da Palestina"
    },
    {
        "code": 591,
        "phoneCode": 507,
        "iso": "PA",
        "iso3": "PAN",
        "name": "Panamá",
        "formalName": "República do Panamá"
    },
    {
        "code": 598,
        "phoneCode": 675,
        "iso": "PG",
        "iso3": "PNG",
        "name": "Papua-Nova Guiné",
        "formalName": "Estado Independente da Papua-Nova Guiné"
    },
    {
        "code": 600,
        "phoneCode": 595,
        "iso": "PY",
        "iso3": "PRY",
        "name": "Paraguai",
        "formalName": "República do Paraguai"
    },
    {
        "code": 604,
        "phoneCode": 51,
        "iso": "PE",
        "iso3": "PER",
        "name": "Peru",
        "formalName": "República do Peru"
    },
    {
        "code": 608,
        "phoneCode": 63,
        "iso": "PH",
        "iso3": "PHL",
        "name": "Filipinas",
        "formalName": "República das Filipinas"
    },
    {
        "code": 612,
        "phoneCode": 672,
        "iso": "PN",
        "iso3": "PCN",
        "name": "Ilhas Picárnia",
        "formalName": "Ilhas Picárnia"
    },
    {
        "code": 616,
        "phoneCode": 48,
        "iso": "PL",
        "iso3": "POL",
        "name": "Polônia",
        "formalName": "República da Polônia"
    },
    {
        "code": 620,
        "phoneCode": 351,
        "iso": "PT",
        "iso3": "PRT",
        "name": "Portugal",
        "formalName": "República Portuguesa"
    },
    {
        "code": 630,
        "phoneCode": 1787,
        "iso": "PR",
        "iso3": "PRI",
        "name": "Porto Rico",
        "formalName": "Comunidade do Porto Rico"
    },
    {
        "code": 634,
        "phoneCode": 974,
        "iso": "QA",
        "iso3": "QAT",
        "name": "Catar",
        "formalName": "Estado do Catar"
    },
    {
        "code": 638,
        "phoneCode": 262,
        "iso": "RE",
        "iso3": "REU",
        "name": "Reunião",
        "formalName": "Polônia"
    },
    {
        "code": 642,
        "phoneCode": 40,
        "iso": "RO",
        "iso3": "ROM",
        "name": "Romênia",
        "formalName": "Romênia"
    },
    {
        "code": 643,
        "phoneCode": 70,
        "iso": "RU",
        "iso3": "RUS",
        "name": "Rússia",
        "formalName": "Federação Russa"
    },
    {
        "code": 646,
        "phoneCode": 250,
        "iso": "RW",
        "iso3": "RWA",
        "name": "Ruanda",
        "formalName": "República da Ruanda"
    },
    {
        "code": 654,
        "phoneCode": 290,
        "iso": "SH",
        "iso3": "SHN",
        "name": "Santa Helena",
        "formalName": "Saint Helena"
    },
    {
        "code": 659,
        "phoneCode": 1869,
        "iso": "KN",
        "iso3": "KNA",
        "name": "São Cristóvão",
        "formalName": "São Cristóvão"
    },
    {
        "code": 662,
        "phoneCode": 1758,
        "iso": "LC",
        "iso3": "LCA",
        "name": "Santa Lúcia",
        "formalName": "Santa Lúcia"
    },
    {
        "code": 666,
        "phoneCode": 508,
        "iso": "PM",
        "iso3": "SPM",
        "name": "São Pedro e Miquelon",
        "formalName": "Coletividade Territorial de São Pedro e Miquelon"
    },
    {
        "code": 670,
        "phoneCode": 1784,
        "iso": "VC",
        "iso3": "VCT",
        "name": "São Vicente e Granadinas",
        "formalName": "São Vicente e Granadinas"
    },
    {
        "code": 882,
        "phoneCode": 684,
        "iso": "WS",
        "iso3": "WSM",
        "name": "Samoa",
        "formalName": "Estado Independente de Samoa"
    },
    {
        "code": 674,
        "phoneCode": 378,
        "iso": "SM",
        "iso3": "SMR",
        "name": "São Marino",
        "formalName": "República de São Marino"
    },
    {
        "code": 678,
        "phoneCode": 239,
        "iso": "ST",
        "iso3": "STP",
        "name": "Sao Tomé e Príncipe",
        "formalName": "República Democrática de Sao Tomé e Príncipe"
    },
    {
        "code": 682,
        "phoneCode": 966,
        "iso": "SA",
        "iso3": "SAU",
        "name": "Arábia Saudita",
        "formalName": "Reino da Arábia Saudita"
    },
    {
        "code": 686,
        "phoneCode": 221,
        "iso": "SN",
        "iso3": "SEN",
        "name": "Senegal",
        "formalName": "República do Senegal"
    },
    {
        "code": 688,
        "phoneCode": 381,
        "iso": "CS",
        "iso3": "SRB",
        "name": "Sérvia e Montenegro",
        "formalName": "União Estatal de Sérvia e Montenegro"
    },
    {
        "code": 690,
        "phoneCode": 248,
        "iso": "SC",
        "iso3": "SYC",
        "name": "Seicheles",
        "formalName": "República das Seicheles"
    },
    {
        "code": 694,
        "phoneCode": 232,
        "iso": "SL",
        "iso3": "SLE",
        "name": "República da Serra Leoa",
        "formalName": "República da Serra Leoa"
    },
    {
        "code": 702,
        "phoneCode": 65,
        "iso": "SG",
        "iso3": "SGP",
        "name": "Singapura",
        "formalName": "República da Singapura"
    },
    {
        "code": 703,
        "phoneCode": 421,
        "iso": "SK",
        "iso3": "SVK",
        "name": "Eslováquia",
        "formalName": "República Eslovaca"
    },
    {
        "code": 705,
        "phoneCode": 386,
        "iso": "SI",
        "iso3": "SVN",
        "name": "Eslovênia",
        "formalName": "República da Eslovênia"
    },
    {
        "code": 90,
        "phoneCode": 677,
        "iso": "SB",
        "iso3": "SLB",
        "name": "Ilhas Salomão",
        "formalName": "Ilhas Salomão"
    },
    {
        "code": 706,
        "phoneCode": 252,
        "iso": "SO",
        "iso3": "SOM",
        "name": "Somália",
        "formalName": "República da Somália"
    },
    {
        "code": 710,
        "phoneCode": 27,
        "iso": "ZA",
        "iso3": "ZAF",
        "name": "África do Sul",
        "formalName": "República da África do Sul"
    },
    {
        "code": 239,
        "phoneCode": 500,
        "iso": "GS",
        "iso3": "SGS",
        "name": "Ilhas Geórgia do Sul e Sandwich do Sul",
        "formalName": "Ilhas Geórgia do Sul e Sandwich do Sul"
    },
    {
        "code": 724,
        "phoneCode": 34,
        "iso": "ES",
        "iso3": "ESP",
        "name": "Espanha",
        "formalName": "Reino da Espanha"
    },
    {
        "code": 144,
        "phoneCode": 94,
        "iso": "LK",
        "iso3": "LKA",
        "name": "Sri Lanka",
        "formalName": "República Democrática Socialista do Sri Lanka"
    },
    {
        "code": 736,
        "phoneCode": 249,
        "iso": "SD",
        "iso3": "SDN",
        "name": "Sudão",
        "formalName": "República do Sudão"
    },
    {
        "code": 740,
        "phoneCode": 597,
        "iso": "SR",
        "iso3": "SUR",
        "name": "Suriname",
        "formalName": "República do Suriname"
    },
    {
        "code": 744,
        "phoneCode": 47,
        "iso": "SJ",
        "iso3": "SJM",
        "name": "Esvalbarde",
        "formalName": "Esvalbarde"
    },
    {
        "code": 748,
        "phoneCode": 268,
        "iso": "SZ",
        "iso3": "SWZ",
        "name": "Suazilândia",
        "formalName": "Reino da Suazilândia"
    },
    {
        "code": 752,
        "phoneCode": 46,
        "iso": "SE",
        "iso3": "SWE",
        "name": "Suécia",
        "formalName": "Reino da Suécia"
    },
    {
        "code": 756,
        "phoneCode": 41,
        "iso": "CH",
        "iso3": "CHE",
        "name": "Suiça",
        "formalName": "Confederação Suiça"
    },
    {
        "code": 760,
        "phoneCode": 963,
        "iso": "SY",
        "iso3": "SYR",
        "name": "Síria",
        "formalName": "República Árabe Síria"
    },
    {
        "code": 158,
        "phoneCode": 886,
        "iso": "TW",
        "iso3": "TWN",
        "name": "Taiwan",
        "formalName": "Taiwan"
    },
    {
        "code": 762,
        "phoneCode": 992,
        "iso": "TJ",
        "iso3": "TJK",
        "name": "Tajiquistão",
        "formalName": "República do Tajiquistão"
    },
    {
        "code": 834,
        "phoneCode": 255,
        "iso": "TZ",
        "iso3": "TZA",
        "name": "Tanzânia",
        "formalName": "República Unida da Tanzânia"
    },
    {
        "code": 764,
        "phoneCode": 66,
        "iso": "TH",
        "iso3": "THA",
        "name": "Tailândia",
        "formalName": "Reino da Tailândia"
    },
    {
        "code": 626,
        "phoneCode": 670,
        "iso": "TL",
        "iso3": "TLS",
        "name": "Timor-Leste",
        "formalName": "República Democrática de Timor-Leste"
    },
    {
        "code": 768,
        "phoneCode": 228,
        "iso": "TG",
        "iso3": "TGO",
        "name": "Togo",
        "formalName": "República Togolesa"
    },
    {
        "code": 772,
        "phoneCode": 690,
        "iso": "TK",
        "iso3": "TKL",
        "name": "Toquelau",
        "formalName": "Toquelau"
    },
    {
        "code": 776,
        "phoneCode": 676,
        "iso": "TO",
        "iso3": "TON",
        "name": "Tonga",
        "formalName": "Reino de Tonga"
    },
    {
        "code": 780,
        "phoneCode": 1868,
        "iso": "TT",
        "iso3": "TTO",
        "name": "Trinidad e Tobago",
        "formalName": "República da Trinidad e Tobago"
    },
    {
        "code": 788,
        "phoneCode": 216,
        "iso": "TN",
        "iso3": "TUN",
        "name": "Tunísia",
        "formalName": "República da Tunísia"
    },
    {
        "code": 792,
        "phoneCode": 90,
        "iso": "TR",
        "iso3": "TUR",
        "name": "Turquia",
        "formalName": "República da Turquia"
    },
    {
        "code": 795,
        "phoneCode": 7370,
        "iso": "TM",
        "iso3": "TKM",
        "name": "Turcomenistão",
        "formalName": "Turcomenistão"
    },
    {
        "code": 796,
        "phoneCode": 1649,
        "iso": "TC",
        "iso3": "TCA",
        "name": "Ilhas Turks e Caicos",
        "formalName": "Ilhas Turks e Caicos"
    },
    {
        "code": 798,
        "phoneCode": 688,
        "iso": "TV",
        "iso3": "TUV",
        "name": "Tuvalu",
        "formalName": "Tuvalu"
    },
    {
        "code": 800,
        "phoneCode": 256,
        "iso": "UG",
        "iso3": "UGA",
        "name": "Uganda",
        "formalName": "República de Uganda"
    },
    {
        "code": 804,
        "phoneCode": 380,
        "iso": "UA",
        "iso3": "UKR",
        "name": "Ucrânia",
        "formalName": "Ucrânia"
    },
    {
        "code": 784,
        "phoneCode": 971,
        "iso": "AE",
        "iso3": "ARE",
        "name": "Emirados Árabes",
        "formalName": "Emirados Árabes Unidos"
    },
    {
        "code": 826,
        "phoneCode": 44,
        "iso": "GB",
        "iso3": "GBR",
        "name": "Reino Unido",
        "formalName": "Reino Unido da Grã-Bretanha e Irlanda do Norte"
    },
    {
        "code": 840,
        "phoneCode": 1,
        "iso": "US",
        "iso3": "USA",
        "name": "Estados Unidos",
        "formalName": "Estados Unidos da América"
    },
    {
        "code": 581,
        "phoneCode": 1,
        "iso": "UM",
        "iso3": "UMI",
        "name": "Ilhas Menores Distantes dos Estados Unidos",
        "formalName": "Ilhas Menores Distantes dos Estados Unidos"
    },
    {
        "code": 858,
        "phoneCode": 598,
        "iso": "UY",
        "iso3": "URY",
        "name": "Uruguai",
        "formalName": "República Oriental do Uruguai"
    },
    {
        "code": 860,
        "phoneCode": 998,
        "iso": "UZ",
        "iso3": "UZB",
        "name": "Uzbequistão",
        "formalName": "República do Uzbequistão"
    },
    {
        "code": 548,
        "phoneCode": 678,
        "iso": "VU",
        "iso3": "VUT",
        "name": "Vanuatu",
        "formalName": "República de Vanuatu"
    },
    {
        "code": 862,
        "phoneCode": 58,
        "iso": "VE",
        "iso3": "VEN",
        "name": "Venezuela",
        "formalName": "República Bolivariana da Venezuela"
    },
    {
        "code": 704,
        "phoneCode": 84,
        "iso": "VN",
        "iso3": "VNM",
        "name": "Vietnam",
        "formalName": "República Socialista do Vietnam"
    },
    {
        "code": 92,
        "phoneCode": 1284,
        "iso": "VG",
        "iso3": "VGB",
        "name": "Ilhas Virgens Inglesas",
        "formalName": "Ilhas Virgens"
    },
    {
        "code": 850,
        "phoneCode": 1340,
        "iso": "VI",
        "iso3": "VIR",
        "name": "Ilhas Virgens (USA)",
        "formalName": "Ilhas Virgens dos Estados Unidos"
    },
    {
        "code": 876,
        "phoneCode": 681,
        "iso": "WF",
        "iso3": "WLF",
        "name": "Wallis e Futuna",
        "formalName": "Wallis e Futuna"
    },
    {
        "code": 732,
        "phoneCode": 212,
        "iso": "EH",
        "iso3": "ESH",
        "name": "Saara Ocidental",
        "formalName": "Saara Ocidental"
    },
    {
        "code": 887,
        "phoneCode": 967,
        "iso": "YE",
        "iso3": "YEM",
        "name": "Iêmen",
        "formalName": "República do Iêmen"
    },
    {
        "code": 894,
        "phoneCode": 260,
        "iso": "ZM",
        "iso3": "ZMB",
        "name": "Zâmbia",
        "formalName": "República do Zâmbia"
    },
    {
        "code": 716,
        "phoneCode": 263,
        "iso": "ZW",
        "iso3": "ZWE",
        "name": "Zimbábue",
        "formalName": "República do Zimbábue"
    }
]
